COSMOS 2531 (RODNIK-S *)
1 43752U 18097B   26167.27207446  .00000038  00000+0  20075-3 0  9997
2 43752  82.5189 223.9065 0017738  60.2182 300.0659 12.42912589342193
COSMOS 2532 (RODNIK-S *)
1 43753U 18097C   26167.30034786 -.00000022  00000+0 -23167-3 0  9997
2 43753  82.5132 222.6754 0019146  61.9928 298.3086 12.42909416342169
MINXSS-2                
1 43758U 18099A   26167.18613502  .00030173  00000+0  60088-3 0  9990
2 43758  97.4540 243.4410 0006547 259.1874 100.8639 15.46840470413974
SIRION PATHFINDER-2     
1 43759U 18099B   26166.66218061  .00003885  00000+0  21421-3 0  9992
2 43759  97.4253 215.7559 0007275 311.6341  48.4267 15.14537445412393
AISTECHSAT 2            
1 43768U 18099L   26167.09853592  .00004496  00000+0  24125-3 0  9997
2 43768  97.4291 215.1562 0003267 315.3969  44.7001 15.15439940412114
FOX-1CLIFF (AO-95)      
1 43770U 18099N   26167.16008802  .00008871  00000+0  34028-3 0  9998
2 43770  97.4381 227.4098 0008085   1.8957 358.2311 15.26694491413062
RANGE-A                 
1 43773U 18099R   26167.05399636  .00004175  00000+0  23734-3 0  9992
2 43773  97.3961 209.6662 0009945   1.1195 359.0057 15.13382042412326
SNUSAT-2                
1 43782U 18099AA  26167.08401475  .00006914  00000+0  30709-3 0  9993
2 43782  97.4055 220.4845 0008668 303.2492  56.7913 15.21824742412860
SNUGLITE                
1 43784U 18099AC  26167.09531525  .00010281  00000+0  38869-3 0  9993
2 43784  97.3866 221.3860 0001249 300.5786  59.5329 15.27159751413154
ITASAT                  
1 43786U 18099AE  26167.09945745  .00005979  00000+0  28803-3 0  9993
2 43786  97.4027 218.6326 0012212   4.0961 356.0371 15.19046010412745
EAGLET-I                
1 43790U 18099AJ  26166.92846303  .00003256  00000+0  18820-3 0  9993
2 43790  97.4231 216.6305 0010784 359.0796   1.0413 15.12932768412148
ESEO                    
1 43792U 18099AL  26167.04948212  .00001944  00000+0  14379-3 0  9998
2 43792  97.3973 204.4861 0011445 343.7457  16.3401 15.04244223411635
THEA                    
1 43796U 18099AQ  26167.15910175  .00015029  00000+0  44464-3 0  9998
2 43796  97.4444 236.8408 0005846 287.7248  72.3357 15.34986952412539
ASTROCAST 0.1           
1 43798U 18099AS  26167.16354272  .00030004  00000+0  54545-3 0  9992
2 43798  97.4378 245.6286 0005094 207.5688 152.5294 15.49480434414276
JY1SAT (JO-97)          
1 43803U 18099AX  26167.11705126  .00014353  00000+0  44350-3 0  9994
2 43803  97.4130 229.9474 0004293 267.4350  92.6401 15.33625681413466
SUOMI-100               
1 43804U 18099AY  26167.15874235  .00009650  00000+0  35133-3 0  9990
2 43804  97.4187 227.5556 0008340 283.4509  76.5801 15.28396054413261
CENTAURI-1              
1 43809U 18099BD  26167.08424312  .00004887  00000+0  25476-3 0  9990
2 43809  97.4222 218.8274 0013191 337.8711  22.1951 15.16357293412334
GLOBAL-2                
1 43812U 18099BG  26167.07994794  .00002226  00000+0  14589-3 0  9997
2 43812  97.3553 203.6395 0006886 145.1485 215.0196 15.08666702411748
SEAHAWK-1               
1 43820U 18099BQ  26167.08491758  .00007607  00000+0  32819-3 0  9993
2 43820  97.3956 219.5869 0006825 320.0480  40.0254 15.22793628412362
SAUDISAT 5A             
1 43831U 18102A   26167.31351380  .00004866  00000+0  18034-3 0  9999
2 43831  97.3069 228.9113 0010968 131.7048 228.5132 15.28040836415548
SAUDISAT 5B             
1 43833U 18102C   26167.33250469  .00004611  00000+0  16967-3 0  9990
2 43833  97.3176 231.9980 0011632 133.8852 226.3351 15.28298006415666
ISAT                    
1 43879U 18111D   26167.07538413  .00083284  00000+0  83984-3 0  9995
2 43879  97.5888 102.2115 0000850 126.1784 233.9554 15.65112490410990
UWE-4                   
1 43880U 18111E   26167.05014457  .00026306  00000+0  53861-3 0  9995
2 43880  97.5856  95.3888 0005718 347.9262  12.1848 15.46065532410602
D-STAR ONE (SPARROW)    
1 43881U 18111F   26166.79623101  .00135517  00000+0  93885-3 0  9993
2 43881  97.6127 107.5042 0004411 112.0374 248.1359 15.74068437411154
JILIN-1 09              
1 43943U 19005B   26167.25869123  .00003916  00000+0  18231-3 0  9992
2 43943  97.4743 262.2288 0003790  96.5342 263.6325 15.20508393409003
JILIN-1 10              
1 43946U 19005E   26167.27398104  .00004853  00000+0  19317-3 0  9990
2 43946  97.4790 266.0778 0006574 283.1314  76.9190 15.25714511409179
EGYPTSAT-A (MISRSAT-A)  
1 44047U 19008A   26167.32770385  .00000361  00000+0  64996-4 0  9991
2 44047  98.0188 232.1000 0001306  90.0649 270.0708 14.72305110393116
EMISAT                  
1 44078U 19018A   26167.31264507  .00000060  00000+0  30712-4 0  9994
2 44078  98.4649 226.1179 0017665 217.3500 142.6464 14.43686354379938
