OBJECT_NAME,OBJECT_ID,EPOCH,MEAN_MOTION,ECCENTRICITY,INCLINATION,RA_OF_ASC_NODE,ARG_OF_PERICENTER,MEAN_ANOMALY,EPHEMERIS_TYPE,CLASSIFICATION_TYPE,NORAD_CAT_ID,ELEMENT_SET_NO,REV_AT_EPOCH,BSTAR,MEAN_MOTION_DOT,MEAN_MOTION_DDOT
COSMOS 2531 (RODNIK-S 17),2018-097B,2026-06-16T06:31:47.233344,12.42912589,.00177384,82.5189,223.9065,60.2182,300.0659,0,U,43752,999,34219,.20074659E-3,.38E-6,0
COSMOS 2532 (RODNIK-S 18),2018-097C,2026-06-16T07:12:30.055104,12.42909416,.00191469,82.5132,222.6754,61.9928,298.3086,0,U,43753,999,34216,-.23166807E-3,-.22E-6,0
MINXSS-2,2018-099A,2026-06-16T04:28:02.065728,15.46840470,.00065476,97.4540,243.4410,259.1874,100.8639,0,U,43758,999,41397,.60088322E-3,.30173E-3,0
SIRION PATHFINDER-2,2018-099B,2026-06-15T15:53:32.404704,15.14537445,.00072754,97.4253,215.7559,311.6341,48.4267,0,U,43759,999,41239,.2142054E-3,.3885E-4,0
AISTECHSAT 2,2018-099L,2026-06-16T02:21:53.503488,15.15439940,.00032679,97.4291,215.1562,315.3969,44.7001,0,U,43768,999,41211,.24125416E-3,.4496E-4,0
FOX-1CLIFF (AO-95),2018-099N,2026-06-16T03:50:31.604928,15.26694491,.00080851,97.4381,227.4098,1.8957,358.2311,0,U,43770,999,41306,.34028274E-3,.8871E-4,0
RANGE-A,2018-099R,2026-06-16T01:17:45.285504,15.13382042,.00099459,97.3961,209.6662,1.1195,359.0057,0,U,43773,999,41232,.23733984E-3,.4175E-4,0
SNUSAT-2,2018-099AA,2026-06-16T02:00:58.874400,15.21824742,.00086682,97.4055,220.4845,303.2492,56.7913,0,U,43782,999,41286,.30708866E-3,.6914E-4,0
SNUGLITE,2018-099AC,2026-06-16T02:17:15.237600,15.27159751,.00012493,97.3866,221.3860,300.5786,59.5329,0,U,43784,999,41315,.38868821E-3,.10281E-3,0
ITASAT,2018-099AE,2026-06-16T02:23:13.123680,15.19046010,.00122123,97.4027,218.6326,4.0961,356.0371,0,U,43786,999,41274,.28803335E-3,.5979E-4,0
EAGLET-I,2018-099AJ,2026-06-15T22:16:59.205792,15.12932768,.0010784,97.4231,216.6305,359.0796,1.0413,0,U,43790,999,41214,.1882E-3,.3256E-4,0
ESEO,2018-099AL,2026-06-16T01:11:15.255168,15.04244223,.00114453,97.3973,204.4861,343.7457,16.3401,0,U,43792,999,41163,.14379165E-3,.1944E-4,0
THEA,2018-099AQ,2026-06-16T03:49:06.391200,15.34986952,.00058462,97.4444,236.8408,287.7248,72.3357,0,U,43796,999,41253,.44464019E-3,.15029E-3,0
ASTROCAST 0.1,2018-099AS,2026-06-16T03:55:30.091008,15.49480434,.00050944,97.4378,245.6286,207.5688,152.5294,0,U,43798,999,41427,.54545428E-3,.30004E-3,0
JY1SAT (JO-97),2018-099AX,2026-06-16T02:48:33.228864,15.33625681,.00042934,97.4130,229.9474,267.4350,92.6401,0,U,43803,999,41346,.44350037E-3,.14353E-3,0
SUOMI-100,2018-099AY,2026-06-16T03:48:35.339040,15.28396054,.00083404,97.4187,227.5556,283.4509,76.5801,0,U,43804,999,41326,.35133052E-3,.965E-4,0
CENTAURI-1,2018-099BD,2026-06-16T02:01:18.605568,15.16357293,.00131914,97.4222,218.8274,337.8711,22.1951,0,U,43809,999,41233,.25476002E-3,.4887E-4,0
GLOBAL-2,2018-099BG,2026-06-16T01:55:07.502016,15.08666702,.00068865,97.3553,203.6395,145.1485,215.0196,0,U,43812,999,41174,.14589135E-3,.2226E-4,0
SEAHAWK-1,2018-099BQ,2026-06-16T02:02:16.878912,15.22793628,.0006825,97.3956,219.5869,320.0480,40.0254,0,U,43820,999,41236,.32819401E-3,.7607E-4,0
SAUDISAT 5A,2018-102A,2026-06-16T07:31:27.592320,15.28040836,.00109686,97.3069,228.9113,131.7048,228.5132,0,U,43831,999,41554,.18034175E-3,.4866E-4,0
SAUDISAT 5B,2018-102C,2026-06-16T07:58:48.405216,15.28298006,.00116326,97.3176,231.9980,133.8852,226.3351,0,U,43833,999,41566,.16967023E-3,.4611E-4,0
ISAT,2018-111D,2026-06-16T01:48:33.188832,15.65112490,.00008502,97.5888,102.2115,126.1784,233.9554,0,U,43879,999,41099,.83983683E-3,.83284E-3,0
UWE-4,2018-111E,2026-06-16T01:12:12.490848,15.46065532,.00057183,97.5856,95.3888,347.9262,12.1848,0,U,43880,999,41060,.53861064E-3,.26306E-3,0
D-STAR ONE (SPARROW),2018-111F,2026-06-15T19:06:34.359264,15.74068437,.00044116,97.6127,107.5042,112.0374,248.1359,0,U,43881,999,41115,.93884582E-3,.135517E-2,0
JILIN-1 09,2019-005B,2026-06-16T06:12:30.922272,15.20508393,.00037905,97.4743,262.2288,96.5342,263.6325,0,U,43943,999,40900,.18230821E-3,.3916E-4,0
JILIN-1 10,2019-005E,2026-06-16T06:34:31.961856,15.25714511,.00065749,97.4790,266.0778,283.1314,76.9190,0,U,43946,999,40917,.19316757E-3,.4853E-4,0
EGYPTSAT-A (MISRSAT-A),2019-008A,2026-06-16T07:51:53.612640,14.72305110,.00013063,98.0188,232.1000,90.0649,270.0708,0,U,44047,999,39311,.64995522E-4,.361E-5,0
EMISAT,2019-018A,2026-06-16T07:30:12.534048,14.43686354,.00176659,98.4649,226.1179,217.3500,142.6464,0,U,44078,999,37993,.30711662E-4,.6E-6,0
